TEVEL2-4                
1 63213U 25052D   26068.69417974  .00020990  00000+0  70363-3 0  9999
2 63213  97.4009 325.1237 0004733  95.3468 264.8313 15.30925813 54879
STARLINK-34840          
1 66406U 25257AC  26068.68320806  .00017606  00000+0  60526-3 0  9999
2 66406  53.1594 216.9578 0000487  96.2852 263.8205 15.30192885 19671
